norad_id,name,regime,epoch,line1,line2,inclination,eccentricity,mean_motion,raan,arg_pericenter,mean_anomaly
20083,RADUGA 1-1,EGO,91225.97047597,1 20083U 89048  A 91225.97047597  .00000185 +00000-0 +00000-0 0 09656\,2 20083 000.4985 066.4238 0001177 091.3847 202.1823 01.00273368007856,0.4985,0.0001177,1.00273368,66.4238,91.3847,202.1823
20083,RADUGA 1-1,EGO,91226.96773008,1 20083U 89048  A 91226.96773008  .00000185 +00000-0 +00000-0 0 09660\,2 20083 000.4990 066.8646 0001370 084.7115 208.3993 01.00273637007864,0.499,0.000137,1.00273637,66.8646,84.7115,208.3993
20083,RADUGA 1-1,EGO,91227.96498216,1 20083U 89048  A 91227.96498216  .00000146 +00000-0 +00000-0 0 09674\,2 20083 000.5039 066.6638 0001214 091.8446 201.4821 01.00274181007871,0.5039,0.0001214,1.00274181,66.6638,91.8446,201.4821
20083,RADUGA 1-1,EGO,91229.95955791,1 20083U 89048  A 91229.95955791  .00000185 +00000-0 +00000-0 0 09708\,2 20083 000.5097 067.0779 0001342 098.3029 194.6127 01.00274749007891,0.5097,0.0001342,1.00274749,67.0779,98.3029,194.6127
20083,RADUGA 1-1,EGO,91230.95679374,1 20083U 89048  A 91230.95679374  .00000186 +00000-0 +00000-0 0 09723\,2 20083 000.5084 067.1182 0001389 084.0034 208.8820 01.00275262007906,0.5084,0.0001389,1.00275262,67.1182,84.0034,208.882
20083,RADUGA 1-1,EGO,91231.95402802,1 20083U 89048  A 91231.95402802  .00000186 +00000-0 +00000-0 0 00130\,2 20083 000.5133 067.2516 0001501 105.0639 187.6800 01.00275634007910,0.5133,0.0001501,1.00275634,67.2516,105.0639,187.68
20083,RADUGA 1-1,EGO,91231.95403220,1 20083U 89048  A 91231.95403220  .00000146 +00000-0 +00000-0 0 09736\,2 20083 000.5137 067.2447 0001448 102.1782 190.5723 01.00275604007918,0.5137,0.0001448,1.00275604,67.2447,102.1782,190.5723
20083,RADUGA 1-1,EGO,91233.94848701,1 20083U 89048  A 91233.94848701  .00000186 +00000-0 +00000-0 0 00166\,2 20083 000.5185 067.5784 0001773 115.9421 176.4691 01.00276189007939,0.5185,0.0001773,1.00276189,67.5784,115.9421,176.4691
20083,RADUGA 1-1,EGO,91233.94849306,1 20083U 89048  A 91233.94849306  .00000146 +00000-0 +00000-0 0 09747\,2 20083 000.5185 067.5930 0001815 117.9164 174.4815 01.00276187007939,0.5185,0.0001815,1.00276187,67.593,117.9164,174.4815
20083,RADUGA 1-1,EGO,91234.94572101,1 20083U 89048  A 91234.94572101  .00000186 +00000-0 +00000-0 0 09759\,2 20083 000.5202 067.5529 0001814 117.5715 174.8682 01.00276603007940,0.5202,0.0001814,1.00276603,67.5529,117.5715,174.8682
20083,RADUGA 1-1,EGO,91235.94294731,1 20083U 89048  A 91235.94294731  .00000145 +00000-0 +00000-0 0 09766\,2 20083 000.5226 067.5481 0001887 120.6778 171.7680 01.00277026007952,0.5226,0.0001887,1.00277026,67.5481,120.6778,171.768
20083,RADUGA 1-1,EGO,91236.94016933,1 20083U 89048  A 91236.94016933  .00000186 +00000-0 +00000-0 0 00219\,2 20083 000.5250 067.5400 0001918 121.7977 170.6582 01.00277447007965,0.525,0.0001918,1.00277447,67.54,121.7977,170.6582
20083,RADUGA 1-1,EGO,91237.93738869,1 20083U 89048  A 91237.93738869  .00000186 +00000-0 +00000-0 0 09790\,2 20083 000.5271 067.6470 0001981 124.0107 168.3400 01.00277865007975,0.5271,0.0001981,1.00277865,67.647,124.0107,168.34
20083,RADUGA 1-1,EGO,91237.93738907,1 20083U 89048  A 91237.93738907  .00000145 +00000-0 +00000-0 0 09787\,2 20083 000.5273 067.5365 0001985 124.5659 167.8952 01.00277864007975,0.5273,0.0001985,1.00277864,67.5365,124.5659,167.8952
20083,RADUGA 1-1,EGO,91238.93460376,1 20083U 89048  A 91238.93460376  .00000186 +00000-0 +00000-0 0 09808\,2 20083 000.5295 067.6403 0002043 126.2360 166.1231 01.00278285007988,0.5295,0.0002043,1.00278285,67.6403,126.236,166.1231
20083,RADUGA 1-1,EGO,91239.93176619,1 20083U 89048  A 91239.93176619  .00000186 +00000-0 +00000-0 0 09825\,2 20083 000.5315 067.6956 0002141 128.2346 164.0687 01.00278895007999,0.5315,0.0002141,1.00278895,67.6956,128.2346,164.0687
20083,RADUGA 1-1,EGO,91239.93181429,1 20083U 89048  A 91239.93181429  .00000144 +00000-0 +00000-0 0 09813\,2 20083 000.5317 067.6318 0002043 126.1398 166.2315 01.00278717007993,0.5317,0.0002043,1.00278717,67.6318,126.1398,166.2315
20083,RADUGA 1-1,EGO,91241.92613421,1 20083U 89048  A 91241.92613421  .00000144 +00000-0 +00000-0 0 09851\,2 20083 000.5359 067.6791 0002304 132.4761 159.8468 01.00279891008013,0.5359,0.0002304,1.00279891,67.6791,132.4761,159.8468
20083,RADUGA 1-1,EGO,91242.92331721,1 20083U 89048  A 91242.92331721  .00000144 +00000-0 +00000-0 0 09863\,2 20083 000.5385 067.7163 0002301 132.9254 159.3590 01.00280313008028,0.5385,0.0002301,1.00280313,67.7163,132.9254,159.359
20083,RADUGA 1-1,EGO,91244.91766427,1 20083U 89048  A 91244.91766427  .00000187 +00000-0 +00000-0 0 00373\,2 20083 000.5433 067.7302 0002321 134.0414 158.2291 01.00281372008044,0.5433,0.0002321,1.00281372,67.7302,134.0414,158.2291
20083,RADUGA 1-1,EGO,91244.91766490,1 20083U 89048  A 91244.91766490  .00000143 +00000-0 +00000-0 0 09880\,2 20083 000.5433 067.7303 0002321 134.0415 158.2291 01.00281372008046,0.5433,0.0002321,1.00281372,67.7303,134.0415,158.2291
20083,RADUGA 1-1,EGO,91245.91481595,1 20083U 89048  A 91245.91481595  .00000187 +00000-0 +00000-0 0 09890\,2 20083 000.5455 067.7471 0002441 136.9002 155.3452 01.00281833008052,0.5455,0.0002441,1.00281833,67.7471,136.9002,155.3452
20083,RADUGA 1-1,EGO,91247.90914748,1 20083U 89048  A 91247.90914748  .00000187 +00000-0 +00000-0 0 09904\,2 20083 000.5503 067.7010 0002533 139.5978 152.6856 01.00282570008077,0.5503,0.0002533,1.0028257,67.701,139.5978,152.6856
20083,RADUGA 1-1,EGO,91248.90630409,1 20083U 89048  A 91248.90630409  .00000142 +00000-0 +00000-0 0 09916\,2 20083 000.5524 067.7637 0002552 140.2340 151.9866 01.00283025008088,0.5524,0.0002552,1.00283025,67.7637,140.234,151.9866
20083,RADUGA 1-1,EGO,91249.90345472,1 20083U 89048  A 91249.90345472  .00000142 +00000-0 +00000-0 0 09921\,2 20083 000.5547 067.7556 0002586 141.0668 151.1587 01.00283429008093,0.5547,0.0002586,1.00283429,67.7556,141.0668,151.1587
20083,RADUGA 1-1,EGO,91250.90060229,1 20083U 89048  A 91250.90060229  .00000188 +00000-0 +00000-0 0 09938\,2 20083 000.5567 067.7739 0002587 140.1700 152.0460 01.00283995008106,0.5567,0.0002587,1.00283995,67.7739,140.17,152.046
20083,RADUGA 1-1,EGO,91251.89773231,1 20083U 89048  A 91251.89773231  .00000141 +00000-0 +00000-0 0 09941\,2 20083 000.5591 067.7771 0002600 140.8776 151.3307 01.00284456008111,0.5591,0.00026,1.00284456,67.7771,140.8776,151.3307
20083,RADUGA 1-1,EGO,91252.89487392,1 20083U 89048  A 91252.89487392  .00000141 +00000-0 +00000-0 0 09975\,2 20083 000.5616 067.9084 0002594 140.8527 151.2234 01.00284874008127,0.5616,0.0002594,1.00284874,67.9084,140.8527,151.2234
20083,RADUGA 1-1,EGO,91252.89490187,1 20083U 89048  A 91252.89490187  .00000141 +00000-0 +00000-0 0 09982\,2 20083 000.5619 067.9785 0002611 142.3255 149.6786 01.00284728008124,0.5619,0.0002611,1.00284728,67.9785,142.3255,149.6786
20083,RADUGA 1-1,EGO,91253.89205068,1 20083U 89048  A 91253.89205068  .00000188 +00000-0 +00000-0 0 09997\,2 20083 000.5640 067.9671 0002577 142.4331 149.5861 01.00285143008135,0.564,0.0002577,1.00285143,67.9671,142.4331,149.5861
20083,RADUGA 1-1,EGO,91254.88933590,1 20083U 89048  A 91254.88933590  .00000141 +00000-0 +00000-0 0 00029\,2 20083 000.5687 068.6666 0002125 146.5460 144.7766 01.00283351008146,0.5687,0.0002125,1.00283351,68.6666,146.546,144.7766
20083,RADUGA 1-1,EGO,91255.88648961,1 20083U 89048  A 91255.88648961  .00000181 +00000-0 +00000-0 0 00018\,2 20083 000.5673 068.9553 0000592 067.7391 223.1451 01.00260691008158,0.5673,5.92e-05,1.00260691,68.9553,67.7391,223.1451
20083,RADUGA 1-1,EGO,91256.88363831,1 20083U 89048  A 91256.88363831  .00000145 +00000-0 +00000-0 0 00031\,2 20083 000.5697 068.7957 0000550 125.9416 165.0125 01.00260792008164,0.5697,5.5e-05,1.00260792,68.7957,125.9416,165.0125
20083,RADUGA 1-1,EGO,91257.88077345,1 20083U 89048  A 91257.88077345  .00000140 +00000-0 +00000-0 0 00051\,2 20083 000.5699 068.2455 0002141 150.9195 140.7531 01.00283943008179,0.5699,0.0002141,1.00283943,68.2455,150.9195,140.7531
20083,RADUGA 1-1,EGO,91257.88097194,1 20083U 89048  A 91257.88097194  .00000146 +00000-0 +00000-0 0 00073\,2 20083 000.5748 069.1331 0000641 049.3302 241.2782 01.00260742008178,0.5748,6.41e-05,1.00260742,69.1331,49.3302,241.2782
20083,RADUGA 1-1,EGO,91258.87909995,1 20083U 89048  A 91258.87909995  .00000182 +00000-0 +00000-0 0 00085\,2 20083 000.5799 069.1276 0000582 049.2971 241.5922 01.00261495008183,0.5799,5.82e-05,1.00261495,69.1276,49.2971,241.5922
20083,RADUGA 1-1,EGO,91260.87382682,1 20083U 89048  A 91260.87382682  .00000182 +00000-0 +00000-0 0 00716\,2 20083 000.5836 069.1320 0000374 091.0103 199.8648 01.00262087008207,0.5836,3.74e-05,1.00262087,69.132,91.0103,199.8648
20083,RADUGA 1-1,EGO,91260.87383525,1 20083U 89048  A 91260.87383525  .00000146 +00000-0 +00000-0 0 00106\,2 20083 000.5836 069.1356 0000380 093.8188 197.0561 01.00262247008208,0.5836,3.8e-05,1.00262247,69.1356,93.8188,197.0561
20083,RADUGA 1-1,EGO,91262.86856263,1 20083U 89048  A 91262.86856263  .00000146 +00000-0 +00000-0 0 00112\,2 20083 000.5843 069.0517 0000730 153.1334 137.8007 01.00261523008221,0.5843,7.3e-05,1.00261523,69.0517,153.1334,137.8007
20083,RADUGA 1-1,EGO,91263.86597190,1 20083U 89048  A 91263.86597190  .00000146 +00000-0 +00000-0 0 00136\,2 20083 000.5881 069.2504 0000786 149.2752 141.4841 01.00263043008239,0.5881,7.86e-05,1.00263043,69.2504,149.2752,141.4841
20083,RADUGA 1-1,EGO,91263.86597296,1 20083U 89048  A 91263.86597296  .00000146 +00000-0 +00000-0 0 00122\,2 20083 000.5883 069.2313 0000825 150.5655 140.2130 01.00263125008239,0.5883,8.25e-05,1.00263125,69.2313,150.5655,140.213
20083,RADUGA 1-1,EGO,91265.86069260,1 20083U 89048  A 91265.86069260  .00000183 +00000-0 +00000-0 0 00142\,2 20083 000.5928 069.2247 0000808 149.5826 141.2084 01.00263918008255,0.5928,8.08e-05,1.00263918,69.2247,149.5826,141.2084
20083,RADUGA 1-1,EGO,91266.85804503,1 20083U 89048  A 91266.85804503  .00000147 +00000-0 +00000-0 0 00161\,2 20083 000.5954 069.1638 0000818 152.1118 138.7425 01.00264384008261,0.5954,8.18e-05,1.00264384,69.1638,152.1118,138.7425
